#aV2007  9 13  0  0   .00000000      96 DD+AD WGS84 FIT  NGA
## 1444 345600.00000000   900.00000000 54356  .0000000000000
+   31     1  2  3  4  5  6  7  8  9 10 11 12 13 14 16 17 18
+         19 20 21 22 23 24 25 26 27 28 29 30 31 32  0  0  0
+          0  0  0  0  0  0  0  0  0  0  0  0  0  0  0  0  0
+          0  0  0  0  0  0  0  0  0  0  0  0  0  0  0  0  0
+          0  0  0  0  0  0  0  0  0  0  0  0  0  0  0  0  0
++         0  0  0  0  0  0  0  0  0  0  0  0  0  0  0  0  0
++         0  0  0  0  0  0  0  0  0  0  0  0  0  0  0  0  0
++         0  0  0  0  0  0  0  0  0  0  0  0  0  0  0  0  0
++         0  0  0  0  0  0  0  0  0  0  0  0  0  0  0  0  0
++         0  0  0  0  0  0  0  0  0  0  0  0  0  0  0  0  0
%c cc cc ccc ccc cccc cccc cccc cccc ccccc ccccc ccccc ccccc
%c cc cc ccc ccc cccc cccc cccc cccc ccccc ccccc ccccc ccccc
%f  0.0000000  0.000000000  0.00000000000  0.000000000000000
%f  0.0000000  0.000000000  0.00000000000  0.000000000000000
%i    0    0    0    0      0      0      0      0         0
%i    0    0    0    0      0      0      0      0         0
/*      NGA, ST. LOUIS,MO.                                  
/*   EPHEMERIS COMPUTED FROM  3 DAYS OF DATA                
/* CCCCCCCCCCCCCCCCCCCCCCCCCCCCCCCCCCCCCCCCCCCCCCCCCCCCCCCCC
/* CCCCCCCCCCCCCCCCCCCCCCCCCCCCCCCCCCCCCCCCCCCCCCCCCCCCCCCCC
*  2007  9 13 21  0   .00000000                                                 
P  1  18310.465001  13233.969826 -13812.048981    152.410338                    
V  1   7797.611322  16088.082634  25289.331495       .024804                    
P  2 -17030.373363   1140.364380 -20470.297877    136.258888                    
V  2  10252.719567 -23589.716853 -10240.411137       .027841                    
P  3  19661.943772   3299.435975  17482.614672    115.307072                    
V  3  12727.016822  18827.856251 -17296.819350       .052311                    
P  4 -11604.216532 -11010.552987 -21227.757583     -5.235407                    
V  4  12957.373812 -23591.026448   5527.732810      -.029364                    
P  5 -11725.425231  15347.406738 -18426.255058    385.511676                    
V  5 -23013.578487   1608.312341  16356.809459       .337684                    
P  6   3574.050096  22343.650044 -13697.867465    245.826003                    
V  6 -12714.629133 -12763.756589 -23844.728339      -.016594                    
P  7   5760.489888  22615.398235 -12297.030950   -107.591535                    
V  7 -12254.104521 -11077.848790 -25450.693501       .256809                    
P  8  -4036.851226 -18275.872978  18542.974355   -122.646789                    
V  8  12962.857492 -20130.801389 -17362.272644      -.014353                    
P  9 -14513.247406  20878.335155   6707.293110     87.560094                    
V  9   1341.487711  -9674.173440  30459.553825       .016787                    
P 10 -26726.737001    650.354091   -440.423034    -29.894492                    
V 10    331.066438  -2352.027242 -31682.669357      -.990149                    
P 11  12040.663151 -22577.477672   6398.114108     23.597792                    
V 11   2369.595017   9502.270139  28861.043129       .005511                    
P 12 -18453.524651  11620.443059 -15025.550550    -56.032855                    
V 12 -19356.748773   -893.018015  23003.351690      -.012857                    
P 13  -3183.944743 -22531.361382 -13828.141798    206.146817                    
V 13  10093.606236  14121.020904 -25505.066261       .029773                    
P 14  15694.002516  21272.875127  -2977.295415     41.235146                    
V 14    515.965986   4247.426862  32013.968656       .022868                    
P 16  25889.127159   2727.799388  -5618.228909    175.420248                    
V 16  -7072.396012   2825.106681 -30653.482553       .022328                    
P 17 -15226.894058 -21817.821858  -1245.560435     54.773009                    
V 17   1409.991759  -2822.990386  31598.899644      -.010072                    
P 18   2438.034469  15404.112080  21675.469225   -236.316222                    
V 18 -27154.269923    641.693938   2267.454366       .017802                    
P 19  13626.062022  -7026.241870  21785.541733     64.979736                    
V 19  13601.178453  23836.783050   -682.823389       .025131                    
P 20  15059.860080 -13502.267782 -17300.233459    -29.559404                    
V 20  21890.356087    253.788352  19000.824423      -.005724                    
P 21  -3157.974885  23548.124901  11384.728528     78.293591                    
V 21  -9853.183301  11173.257467 -26761.401743      -.001985                    
P 22  16213.208250  12191.861753  17328.458125    197.598513                    
V 22 -21682.254379   2147.413856  18906.995433       .010017                    
P 23   5683.843454 -16371.129978 -20135.816690    200.938859                    
V 23  14916.912859  20634.035944 -12836.266018       .038582                    
P 24 -12458.756093  23620.532863   1080.942160     30.351666                    
V 24  -2954.426537   -376.550444 -31391.538200       .029845                    
P 25   5984.775542 -25520.109219   5124.662323    437.750052                    
V 25   4566.665087  -4697.309139 -30771.990683       .101386                    
P 26 -14931.822992   2365.419907  21464.135733     26.574994                    
V 26 -14461.996544 -24162.062493  -6716.680555       .134535                    
P 27    907.783370 -23783.842842  12207.378101    134.891437                    
V 27   7728.977301 -12543.512709 -26641.883205       .023588                    
P 28 -13196.357316 -13080.947384  19450.485723     -6.836525                    
V 28  23795.936345  -1902.864009  14792.842818      -.006179                    
P 29 -17157.425791  -1536.431059  20529.173629      5.625753                    
V 29 -13554.687078 -21523.700468 -12685.810239       .001096                    
P 30  -5350.791204  15737.963613 -21023.364159     45.603121                    
V 30 -25977.530733   1729.280355   8137.562293       .011506                    
P 31  12942.682593   7761.269267 -21655.073754      9.630407                    
V 31 -12516.389274  25009.765624   1540.217184      -.012533                    
P 32  24170.172655   6673.260663   9013.104822     57.609324                    
V 32 -10862.377231   1996.795559  29304.595501       .168307                    
EOF
